NORAD_CAT_ID,OBJECT_NAME,OBJECT_TYPE,EPOCH,MEAN_MOTION,ECCENTRICITY,INCLINATION,RA_OF_ASC_NODE,ARG_OF_PERICENTER,MEAN_ANOMALY,BSTAR,MEAN_MOTION_DOT,MEAN_MOTION_DDOT,TLE_LINE0,TLE_LINE1,TLE_LINE2,SEMIMAJOR_AXIS,PERIOD,APOGEE,PERIGEE,DECAYED
50207.0,STARLINK-3262,PAYLOAD,2023-12-15 04:32:09,15.08851836,0.0001615,53.2174,300.0465,87.5563,272.5614,0.00025756,3.815e-05,0.0,0 STARLINK-3262,1 50207U 21125BD  23349.18900190  .00003815  00000-0  25756-3 0  9999,2 50207  53.2174 300.0465 0001615  87.5563 272.5614 15.08851836111615,6917.844,95.437,540.826,538.592,0.0
50207.0,STARLINK-3262,PAYLOAD,2023-12-16 02:47:34,15.08837454,0.0001593,53.2172,295.8882,111.7132,248.403,2.0744e-05,4.2e-07,0.0,0 STARLINK-3262,1 50207U 21125BD  23350.11636881  .00000042  00000-0  20744-4 0  9999,2 50207  53.2172 295.8882 0001593 111.7132 248.4030 15.08837454111753,6917.888,95.438,540.855,538.651,0.0
50207.0,STARLINK-3262,PAYLOAD,2023-12-16 04:22:57,15.08840401,0.000158,53.2176,295.5877,74.003,286.1136,0.00012449,1.694e-05,0.0,0 STARLINK-3262,1 50207U 21125BD  23350.18261058  .00001694  00000-0  12449-3 0  9992,2 50207  53.2176 295.5877 0001580  74.0030 286.1136 15.08840401111765,6917.879,95.438,540.837,538.651,0.0
50207.0,STARLINK-3262,PAYLOAD,2023-12-17 02:38:21,15.08848614,0.0001419,53.216,291.4261,79.5587,280.5565,0.00026632,3.954e-05,0.0,0 STARLINK-3262,1 50207U 21125BD  23351.10996857  .00003954  00000-0  26632-3 0  9997,2 50207  53.2160 291.4261 0001419  79.5587 280.5565 15.08848614111902,6917.854,95.437,540.701,538.737,0.0
50207.0,STARLINK-3262,PAYLOAD,2023-12-18 00:53:44,15.08860344,0.0001532,53.2154,287.2638,71.7896,288.3263,0.00053446,8.233e-05,0.0,0 STARLINK-3262,1 50207U 21125BD  23352.03732350  .00008233  00000-0  53446-3 0  9994,2 50207  53.2154 287.2638 0001532  71.7896 288.3263 15.08860344112040,6917.818,95.436,540.743,538.623,0.0
50207.0,STARLINK-3262,PAYLOAD,2023-12-19 02:19:55,15.08837609,0.0001254,53.2161,282.5046,86.201,273.9125,-4.294e-05,-9.71e-06,0.0,0 STARLINK-3262,1 50207U 21125BD  23353.09716884 -.00000971  00000-0 -42940-4 0  9996,2 50207  53.2161 282.5046 0001254  86.2010 273.9125 15.08837609112202,6917.888,95.438,540.62,538.885,0.0
50207.0,STARLINK-3262,PAYLOAD,2023-12-20 02:10:42,15.08848924,0.0001375,53.2164,278.0426,103.4796,256.6349,0.00029136,4.353e-05,0.0,0 STARLINK-3262,1 50207U 21125BD  23354.09076619  .00004353  00000-0  29136-3 0  9999,2 50207  53.2164 278.0426 0001375 103.4796 256.6349 15.08848924112358,6917.853,95.437,540.669,538.767,0.0
50207.0,STARLINK-3262,PAYLOAD,2023-12-21 02:01:29,15.08851527,0.0001542,53.2167,273.5828,113.2738,246.8416,0.00033108,4.987e-05,0.0,0 STARLINK-3262,1 50207U 21125BD  23355.08436594  .00004987  00000-0  33108-3 0  9998,2 50207  53.2167 273.5828 0001542 113.2738 246.8416 15.08851527112504,6917.845,95.437,540.777,538.643,0.0
50207.0,STARLINK-3262,PAYLOAD,2023-12-21 22:41:30,15.08834185,0.0001684,53.2166,269.718,131.5143,228.5994,-0.00011062,-2.048e-05,0.0,0 STARLINK-3262,1 50207U 21125BD  23355.94549294 -.00002048  00000-0 -11062-3 0  9998,2 50207  53.2166 269.7180 0001684 131.5143 228.5994 15.08834185112634,6917.898,95.438,540.928,538.598,0.0
50207.0,STARLINK-3262,PAYLOAD,2023-12-22 01:52:17,15.08832462,0.000142,53.216,269.1177,99.5865,260.5288,-0.00010425,-1.946e-05,0.0,0 STARLINK-3262,1 50207U 21125BD  23356.07797560 -.00001946  00000-0 -10425-3 0  9992,2 50207  53.2160 269.1177 0001420  99.5865 260.5288 15.08832462112650,6917.903,95.438,540.751,538.786,0.0
50207.0,STARLINK-3262,PAYLOAD,2023-12-22 22:32:18,15.08836499,0.0001309,53.2155,265.2496,99.5149,260.5991,3.9892e-05,3.47e-06,0.0,0 STARLINK-3262,1 50207U 21125BD  23356.93909839  .00000347  00000-0  39892-4 0  9993,2 50207  53.2155 265.2496 0001309  99.5149 260.5991 15.08836499112785,6917.891,95.438,540.662,538.851,0.0
50207.0,STARLINK-3262,PAYLOAD,2023-12-23 03:18:27,15.08848307,0.000168,53.217,264.3538,78.4172,281.7009,0.00034693,5.239e-05,0.0,0 STARLINK-3262,1 50207U 21125BD  23357.13781680  .00005239  00000-0  34693-3 0  9996,2 50207  53.2170 264.3538 0001680  78.4172 281.7009 15.08848307112813,6917.855,95.437,540.882,538.558,0.0
50207.0,STARLINK-3262,PAYLOAD,2023-12-23 17:36:56,15.08835695,0.0001399,53.2155,261.6861,94.7477,265.3675,0.00020898,3.039e-05,0.0,0 STARLINK-3262,1 50207U 21125BD  23357.73398472  .00003039  00000-0  20898-3 0  9993,2 50207  53.2155 261.6861 0001399  94.7477 265.3675 15.08835695112904,6917.894,95.438,540.726,538.791,0.0
50207.0,STARLINK-3262,PAYLOAD,2023-12-23 22:23:05,15.0884112,0.0001899,53.2153,260.7926,118.7812,241.3371,0.00025373,3.752e-05,0.0,0 STARLINK-3262,1 50207U 21125BD  23357.93270178  .00003752  00000-0  25373-3 0  9992,2 50207  53.2153 260.7926 0001899 118.7812 241.3371 15.08841120112939,6917.877,95.437,541.056,538.428,0.0
50207.0,STARLINK-3262,PAYLOAD,2023-12-23 23:58:28,15.08841017,0.0001807,53.2157,260.4957,120.6853,239.4317,0.00023646,3.477e-05,0.0,0 STARLINK-3262,1 50207U 21125BD  23357.99894181  .00003477  00000-0  23646-3 0  9999,2 50207  53.2157 260.4957 0001807 120.6853 239.4317 15.08841017112944,6917.877,95.437,540.992,538.492,0.0
50207.0,STARLINK-3262,PAYLOAD,2023-12-24 22:13:51,15.08858118,0.0002253,53.2166,256.3325,135.6079,224.5094,0.00036355,5.505e-05,0.0,0 STARLINK-3262,1 50207U 21125BD  23358.92629310  .00005505  00000-0  36355-3 0  9998,2 50207  53.2166 256.3325 0002253 135.6079 224.5094 15.08858118113082,6917.825,95.436,541.249,538.131,0.0
50207.0,STARLINK-3262,PAYLOAD,2023-12-25 03:00:01,15.08867979,0.0001705,53.217,255.4346,86.2291,273.8896,0.00092255,0.00014436,0.0,0 STARLINK-3262,1 50207U 21125BD  23359.12501349  .00014436  00000-0  92255-3 0  9996,2 50207  53.2170 255.4346 0001705  86.2291 273.8896 15.08867979113114,6917.795,95.436,540.839,538.48,0.0
50207.0,STARLINK-3262,PAYLOAD,2023-12-25 20:29:16,15.08842173,0.0001523,53.216,252.1727,87.3458,272.7709,2.693e-05,1.41e-06,0.0,0 STARLINK-3262,1 50207U 21125BD  23359.85365865  .00000141  00000-0  26930-4 0  9993,2 50207  53.2160 252.1727 0001523  87.3458 272.7709 15.08842173113227,6917.874,95.437,540.792,538.685,0.0
50207.0,STARLINK-3262,PAYLOAD,2023-12-25 22:04:39,15.08839403,0.0001585,53.2159,251.8746,96.1423,263.975,6.1161e-05,6.85e-06,0.0,0 STARLINK-3262,1 50207U 21125BD  23359.91989798  .00000685  00000-0  61161-4 0  9995,2 50207  53.2159 251.8746 0001585  96.1423 263.9750 15.08839403113231,6917.882,95.438,540.844,538.651,0.0
50207.0,STARLINK-3262,PAYLOAD,2023-12-26 02:50:48,15.08837753,0.0001479,53.2161,250.9819,73.7334,286.3821,0.00034903,5.271e-05,0.0,0 STARLINK-3262,1 50207U 21125BD  23360.11862059  .00005271  00000-0  34903-3 0  9998,2 50207  53.2161 250.9819 0001479  73.7334 286.3821 15.08837753113266,6917.887,95.438,540.775,538.729,0.0
50207.0,STARLINK-3262,PAYLOAD,2023-12-26 21:55:26,15.08844341,0.0001512,53.2157,247.413,75.5458,284.5701,0.00049401,7.584e-05,0.0,0 STARLINK-3262,1 50207U 21125BD  23360.91350211  .00007584  00000-0  49401-3 0  9996,2 50207  53.2157 247.4130 0001512  75.5458 284.5701 15.08844341113384,6917.867,95.437,540.778,538.686,0.0
50207.0,STARLINK-3262,PAYLOAD,2023-12-27 20:10:50,15.08844156,0.0001478,53.215,243.2499,82.5112,277.6048,0.00020414,2.963e-05,0.0,0 STARLINK-3262,1 50207U 21125BD  23361.84086089  .00002963  00000-0  20414-3 0  9997,2 50207  53.2150 243.2499 0001478  82.5112 277.6048 15.08844156113522,6917.868,95.437,540.755,538.71,0.0
50207.0,STARLINK-3262,PAYLOAD,2023-12-27 21:46:13,15.08843306,0.0001478,53.2151,242.9526,81.9389,278.1771,0.00018539,2.664e-05,0.0,0 STARLINK-3262,1 50207U 21125BD  23361.90710096  .00002664  00000-0  18539-3 0  9999,2 50207  53.2151 242.9526 0001478  81.9389 278.1771 15.08843306113535,6917.87,95.437,540.758,538.713,0.0
50207.0,STARLINK-3262,PAYLOAD,2023-12-28 20:01:37,15.08840655,0.0001423,53.2144,238.7875,77.6155,282.4997,-2.6178e-05,-7.05e-06,0.0,0 STARLINK-3262,1 50207U 21125BD  23362.83446164 -.00000705  00000-0 -26178-4 0  9999,2 50207  53.2144 238.7875 0001423  77.6155 282.4997 15.08840655113677,6917.878,95.438,540.728,538.759,0.0
50207.0,STARLINK-3262,PAYLOAD,2023-12-29 21:27:47,15.08840562,0.0001632,53.2141,234.0343,61.6244,298.4913,0.00013085,1.795e-05,0.0,0 STARLINK-3262,1 50207U 21125BD  23363.89430501  .00001795  00000-0  13085-3 0  9994,2 50207  53.2141 234.0343 0001632  61.6244 298.4913 15.08840562113837,6917.879,95.438,540.873,538.615,0.0
50207.0,STARLINK-3262,PAYLOAD,2023-12-30 00:38:33,15.08845044,0.0001635,53.2153,233.4331,73.9078,286.2094,0.00017345,2.474e-05,0.0,0 STARLINK-3262,1 50207U 21125BD  23364.02678161  .00002474  00000-0  17345-3 0  9994,2 50207  53.2153 233.4331 0001635  73.9078 286.2094 15.08845044113851,6917.865,95.437,540.861,538.599,0.0
50207.0,STARLINK-3262,PAYLOAD,2023-12-30 19:43:11,15.0883706,0.0001515,53.2155,229.866,91.2558,268.8608,7.5317e-05,9.11e-06,0.0,0 STARLINK-3262,1 50207U 21125BD  23364.82166606  .00000911  00000-0  75317-4 0  9996,2 50207  53.2155 229.8660 0001515  91.2558 268.8608 15.08837060113979,6917.889,95.438,540.802,538.706,0.0
50207.0,STARLINK-3262,PAYLOAD,2023-12-31 00:29:21,15.08826867,0.0001507,53.2159,228.9732,82.6383,277.4781,0.00044203,6.751e-05,0.0,0 STARLINK-3262,1 50207U 21125BD  23365.02039201  .00006751  00000-0  44203-3 0  9996,2 50207  53.2159 228.9732 0001507  82.6383 277.4781 15.08826867114000,6917.921,95.438,540.828,538.743,0.0
50207.0,STARLINK-3262,PAYLOAD,2023-12-31 19:33:58,15.08844034,0.0001493,53.2166,225.4056,90.6355,269.4808,5.4189e-05,5.75e-06,0.0,0 STARLINK-3262,1 50207U 21125BD  23365.81526473  .00000575  00000-0  54189-4 0  9998,2 50207  53.2166 225.4056 0001493  90.6355 269.4808 15.08844034114121,6917.868,95.437,540.766,538.7,0.0
50207.0,STARLINK-3262,PAYLOAD,2023-12-31 21:09:21,15.08843893,0.0001502,53.2164,225.1085,90.4349,269.6815,4.8678e-05,4.87e-06,0.0,0 STARLINK-3262,1 50207U 21125BD  23365.88150420  .00000487  00000-0  48678-4 0  9998,2 50207  53.2164 225.1085 0001502  90.4349 269.6815 15.08843893114133,6917.868,95.437,540.773,538.694,0.0
